{
  "type": "FeatureCollection",
  "features": [
    {
      "type": "Feature",
      "properties": {
        "norad_id": 37781,
        "name": "HAIYANG-2A",
        "group": "resource",
        "lat": 53.7540202996469,
        "lon": -170.29352248483278,
        "alt_km": 962.1910370338319,
        "timestamp": "2025-12-21T22:41:41.104424+00:00",
        "meta_object_name": "HAIYANG-2A",
        "meta_object_id": "2011-043A",
        "meta_epoch": "2025-12-21T15:07:26.717376",
        "meta_mean_motion": 13.7883561,
        "meta_eccentricity": 0.0001626,
        "meta_inclination": 99.3371,
        "meta_ra_of_asc_node": 356.4276,
        "meta_arg_of_pericenter": 71.0154,
        "meta_mean_anomaly": 289.1174,
        "meta_ephemeris_type": 0,
        "meta_classification_type": "U",
        "meta_norad_cat_id": 37781,
        "meta_element_set_no": 999,
        "meta_rev_at_epoch": 72221,
        "meta_bstar": -0.00010059818,
        "meta_mean_motion_dot": -1.46e-06,
        "meta_mean_motion_ddot": 0,
        "tle_line1": "1 37781U 11043A   25355.63017034 -.00000146  00000+0 -10060-3 0  9991",
        "tle_line2": "2 37781  99.3371 356.4276 0001626  71.0154 289.1174 13.78835610722214"
      },
      "geometry": {
        "type": "Point",
        "coordinates": [
          -170.29352248483278,
          53.7540202996469
        ]
      }
    },
    {
      "type": "Feature",
      "properties": {
        "norad_id": 37791,
        "name": "RASAT",
        "group": "resource",
        "lat": -50.50549453023574,
        "lon": 94.97404206827746,
        "alt_km": 674.1635995483248,
        "timestamp": "2025-12-21T22:41:41.104434+00:00",
        "meta_object_name": "RASAT",
        "meta_object_id": "2011-044D",
        "meta_epoch": "2025-12-21T13:40:33.903840",
        "meta_mean_motion": 14.67920554,
        "meta_eccentricity": 0.00215177,
        "meta_inclination": 98.0652,
        "meta_ra_of_asc_node": 84.6971,
        "meta_arg_of_pericenter": 38.4247,
        "meta_mean_anomaly": 86.085,
        "meta_ephemeris_type": 0,
        "meta_classification_type": "U",
        "meta_norad_cat_id": 37791,
        "meta_element_set_no": 999,
        "meta_rev_at_epoch": 76712,
        "meta_bstar": 9.2659971e-05,
        "meta_mean_motion_dot": 4.83e-06,
        "meta_mean_motion_ddot": 0,
        "tle_line1": "1 37791U 11044D   25355.56983685  .00000483  00000+0  92660-4 0  9998",
        "tle_line2": "2 37791  98.0652  84.6971 0021517  38.4247  86.0850 14.67920554767121"
      },
      "geometry": {
        "type": "Point",
        "coordinates": [
          94.97404206827746,
          -50.50549453023574
        ]
      }
    },
    {
      "type": "Feature",
      "properties": {
        "norad_id": 37841,
        "name": "SRMSAT",
        "group": "resource",
        "lat": 8.285915965673254,
        "lon": -151.40171015565636,
        "alt_km": 852.303252201621,
        "timestamp": "2025-12-21T22:41:41.104444+00:00",
        "meta_object_name": "SRMSAT",
        "meta_object_id": "2011-058D",
        "meta_epoch": "2025-12-21T11:55:34.039200",
        "meta_mean_motion": 14.11514217,
        "meta_eccentricity": 0.00119651,
        "meta_inclination": 19.9726,
        "meta_ra_of_asc_node": 54.9508,
        "meta_arg_of_pericenter": 49.5052,
        "meta_mean_anomaly": 340.41,
        "meta_ephemeris_type": 0,
        "meta_classification_type": "U",
        "meta_norad_cat_id": 37841,
        "meta_element_set_no": 999,
        "meta_rev_at_epoch": 73268,
        "meta_bstar": 7.0305754e-05,
        "meta_mean_motion_dot": 3.94e-06,
        "meta_mean_motion_ddot": 0,
        "tle_line1": "1 37841U 11058D   25355.49692175  .00000394  00000+0  70306-4 0  9996",
        "tle_line2": "2 37841  19.9726  54.9508 0011965  49.5052 340.4100 14.11514217732682"
      },
      "geometry": {
        "type": "Point",
        "coordinates": [
          -151.40171015565636,
          8.285915965673254
        ]
      }
    },
    {
      "type": "Feature",
      "properties": {
        "norad_id": 38012,
        "name": "PLEIADES 1A",
        "group": "resource",
        "lat": 24.713560382418084,
        "lon": -107.6307475092876,
        "alt_km": 696.9840780997165,
        "timestamp": "2025-12-21T22:41:41.104455+00:00",
        "meta_object_name": "PLEIADES 1A",
        "meta_object_id": "2011-076F",
        "meta_epoch": "2025-12-21T15:58:09.340896",
        "meta_mean_motion": 14.58569029,
        "meta_eccentricity": 0.00011737,
        "meta_inclination": 98.1819,
        "meta_ra_of_asc_node": 68.2967,
        "meta_arg_of_pericenter": 74.5388,
        "meta_mean_anomaly": 49.792,
        "meta_ephemeris_type": 0,
        "meta_classification_type": "U",
        "meta_norad_cat_id": 38012,
        "meta_element_set_no": 999,
        "meta_rev_at_epoch": 74611,
        "meta_bstar": 8.3702993e-05,
        "meta_mean_motion_dot": 3.44e-06,
        "meta_mean_motion_ddot": 0,
        "tle_line1": "1 38012U 11076F   25355.66538589  .00000344  00000+0  83703-4 0  9994",
        "tle_line2": "2 38012  98.1819  68.2967 0001173  74.5388  49.7920 14.58569029746116"
      },
      "geometry": {
        "type": "Point",
        "coordinates": [
          -107.6307475092876,
          24.713560382418084
        ]
      }
    },
    {
      "type": "Feature",
      "properties": {
        "norad_id": 38038,
        "name": "ZIYUAN 1-02C (ZY 1-02C)",
        "group": "resource",
        "lat": 74.68649054710252,
        "lon": -85.40613121505159,
        "alt_km": 752.6623257889951,
        "timestamp": "2025-12-21T22:41:41.104465+00:00",
        "meta_object_name": "ZIYUAN 1-02C (ZY 1-02C)",
        "meta_object_id": "2011-079A",
        "meta_epoch": "2025-12-21T14:29:59.247744",
        "meta_mean_motion": 14.38022193,
        "meta_eccentricity": 0.00074857,
        "meta_inclination": 98.4328,
        "meta_ra_of_asc_node": 61.4547,
        "meta_arg_of_pericenter": 115.0573,
        "meta_mean_anomaly": 21.1018,
        "meta_ephemeris_type": 0,
        "meta_classification_type": "U",
        "meta_norad_cat_id": 38038,
        "meta_element_set_no": 999,
        "meta_rev_at_epoch": 73368,
        "meta_bstar": 0.00023632678,
        "meta_mean_motion_dot": 6.72e-06,
        "meta_mean_motion_ddot": 0,
        "tle_line1": "1 38038U 11079A   25355.60415796  .00000672  00000+0  23633-3 0  9992",
        "tle_line2": "2 38038  98.4328  61.4547 0007485 115.0573  21.1018 14.38022193733684"
      },
      "geometry": {
        "type": "Point",
        "coordinates": [
          -85.40613121505159,
          74.68649054710252
        ]
      }
    },
    {
      "type": "Feature",
      "properties": {
        "norad_id": 38338,
        "name": "ARIRANG-3 (KOMPSAT-3)",
        "group": "resource",
        "lat": 22.88066842274244,
        "lon": 134.15140801657589,
        "alt_km": 690.1750823987222,
        "timestamp": "2025-12-21T22:41:41.104476+00:00",
        "meta_object_name": "ARIRANG-3 (KOMPSAT-3)",
        "meta_object_id": "2012-025B",
        "meta_epoch": "2025-12-21T13:45:54.959328",
        "meta_mean_motion": 14.61723363,
        "meta_eccentricity": 0.00048438,
        "meta_inclination": 98.3335,
        "meta_ra_of_asc_node": 310.23,
        "meta_arg_of_pericenter": 307.6938,
        "meta_mean_anomaly": 52.3823,
        "meta_ephemeris_type": 0,
        "meta_classification_type": "U",
        "meta_norad_cat_id": 38338,
        "meta_element_set_no": 999,
        "meta_rev_at_epoch": 72539,
        "meta_bstar": 9.8955031e-05,
        "meta_mean_motion_dot": 4.45e-06,
        "meta_mean_motion_ddot": 0,
        "tle_line1": "1 38338U 12025B   25355.57355277  .00000445  00000+0  98955-4 0  9998",
        "tle_line2": "2 38338  98.3335 310.2300 0004843 307.6938  52.3823 14.61723363725397"
      },
      "geometry": {
        "type": "Point",
        "coordinates": [
          134.15140801657589,
          22.88066842274244
        ]
      }
    },
    {
      "type": "Feature",
      "properties": {
        "norad_id": 38709,
        "name": "EXACTVIEW-1 (ADS-1B)",
        "group": "resource",
        "lat": 16.60196453555917,
        "lon": 101.83139664405151,
        "alt_km": 804.5720538019687,
        "timestamp": "2025-12-21T22:41:41.104486+00:00",
        "meta_object_name": "EXACTVIEW-1 (ADS-1B)",
        "meta_object_id": "2012-039C",
        "meta_epoch": "2025-12-21T07:26:55.885056",
        "meta_mean_motion": 14.24911158,
        "meta_eccentricity": 0.0010266,
        "meta_inclination": 98.9638,
        "meta_ra_of_asc_node": 103.8803,
        "meta_arg_of_pericenter": 328.7162,
        "meta_mean_anomaly": 31.3404,
        "meta_ephemeris_type": 0,
        "meta_classification_type": "U",
        "meta_norad_cat_id": 38709,
        "meta_element_set_no": 999,
        "meta_rev_at_epoch": 69737,
        "meta_bstar": 6.9188e-05,
        "meta_mean_motion_dot": 1.15e-06,
        "meta_mean_motion_ddot": 0,
        "tle_line1": "1 38709U 12039C   25355.31036904  .00000115  00000+0  69188-4 0  9990",
        "tle_line2": "2 38709  98.9638 103.8803 0010266 328.7162  31.3404 14.24911158697372"
      },
      "geometry": {
        "type": "Point",
        "coordinates": [
          101.83139664405151,
          16.60196453555917
        ]
      }
    }
  ]
}